[{"CCSDS_OMM_VERS":"2.0","COMMENT":"GENERATED VIA SPACE-TRACK.ORG API","CREATION_DATE":"2021-11-04T17:50:53","ORIGINATOR":"18 SPCS","OBJECT_NAME":"TBA - TO BE ASSIGNED","OBJECT_ID":"1971-015","CENTER_NAME":"EARTH","REF_FRAME":"TEME","TIME_SYSTEM":"UTC","MEAN_ELEMENT_THEORY":"SGP4","EPOCH":"2021-11-04T09:16:23.021184","MEAN_MOTION":"13.88601365","ECCENTRICITY":"0.05505650","INCLINATION":"65.7741","RA_OF_ASC_NODE":"181.8440","ARG_OF_PERICENTER":"110.0067","MEAN_ANOMALY":"256.1141","EPHEMERIS_TYPE":"0","CLASSIFICATION_TYPE":"U","NORAD_CAT_ID":"87271","ELEMENT_SET_NO":"999","REV_AT_EPOCH":"40220","BSTAR":"0.00111680000000","MEAN_MOTION_DOT":"0.00004535","MEAN_MOTION_DDOT":"0.0000000000000","SEMIMAJOR_AXIS":"7311.673","PERIOD":"103.701","APOAPSIS":"1336.094","PERIAPSIS":"530.983","OBJECT_TYPE":"TBA","RCS_SIZE":null,"COUNTRY_CODE":null,"LAUNCH_DATE":null,"SITE":null,"DECAY_DATE":null,"FILE":"3200777","GP_ID":"188874052","TLE_LINE0":"0 TBA - TO BE ASSIGNED","TLE_LINE1":"1 87271U 71015    21308.38637756 +.00004535 +00000+0 +11168-2 0  9993","TLE_LINE2":"2 87271  65.7741 181.8440 0550565 110.0067 256.1141 13.88601365402203"},{"CCSDS_OMM_VERS":"2.0","COMMENT":"GENERATED VIA SPACE-TRACK.ORG API","CREATION_DATE":"2021-11-03T18:02:46","ORIGINATOR":"18 SPCS","OBJECT_NAME":"TBA - TO BE ASSIGNED","OBJECT_ID":"","CENTER_NAME":"EARTH","REF_FRAME":"TEME","TIME_SYSTEM":"UTC","MEAN_ELEMENT_THEORY":"SGP4","EPOCH":"2021-11-03T14:16:26.087232","MEAN_MOTION":"13.46993045","ECCENTRICITY":"0.01324380","INCLINATION":"64.6169","RA_OF_ASC_NODE":"339.4540","ARG_OF_PERICENTER":"255.7145","MEAN_ANOMALY":"102.9156","EPHEMERIS_TYPE":"0","CLASSIFICATION_TYPE":"U","NORAD_CAT_ID":"87280","ELEMENT_SET_NO":"999","REV_AT_EPOCH":"33169","BSTAR":"0.00042301000000","MEAN_MOTION_DOT":"0.00000188","MEAN_MOTION_DDOT":"0.0000000000000","SEMIMAJOR_AXIS":"7461.479","PERIOD":"106.905","APOAPSIS":"1182.163","PERIAPSIS":"984.526","OBJECT_TYPE":"TBA","RCS_SIZE":null,"COUNTRY_CODE":null,"LAUNCH_DATE":null,"SITE":null,"DECAY_DATE":null,"FILE":"3199757","GP_ID":"188806132","TLE_LINE0":"0 TBA - TO BE ASSIGNED","TLE_LINE1":"1 87280U          21307.59474638 +.00000188 +00000+0 +42301-3 0  9993","TLE_LINE2":"2 87280  64.6169 339.4540 0132438 255.7145 102.9156 13.46993045331697"},{"CCSDS_OMM_VERS":"2.0","COMMENT":"GENERATED VIA SPACE-TRACK.ORG API","CREATION_DATE":"2021-04-01T18:02:04","ORIGINATOR":"18 SPCS","OBJECT_NAME":"TBA - TO BE ASSIGNED","OBJECT_ID":"","CENTER_NAME":"EARTH","REF_FRAME":"TEME","TIME_SYSTEM":"UTC","MEAN_ELEMENT_THEORY":"SGP4","EPOCH":"2019-02-09T22:48:55.261440","MEAN_MOTION":"8.72274119","ECCENTRICITY":"0.18954660","INCLINATION":"89.4148","RA_OF_ASC_NODE":"28.6510","ARG_OF_PERICENTER":"305.1602","MEAN_ANOMALY":"38.5773","EPHEMERIS_TYPE":"0","CLASSIFICATION_TYPE":"U","NORAD_CAT_ID":"87284","ELEMENT_SET_NO":"999","REV_AT_EPOCH":"11956","BSTAR":"0.06616000000000","MEAN_MOTION_DOT":"0.00000935","MEAN_MOTION_DDOT":"0.0000000000000","SEMIMAJOR_AXIS":"9968.577","PERIOD":"165.086","APOAPSIS":"5479.952","PERIAPSIS":"1700.932","OBJECT_TYPE":"TBA","RCS_SIZE":null,"COUNTRY_CODE":null,"LAUNCH_DATE":null,"SITE":null,"DECAY_DATE":null,"FILE":"3003335","GP_ID":"174606919","TLE_LINE0":"0 TBA - TO BE ASSIGNED","TLE_LINE1":"1 87284U          19040.95063960 +.00000935 +00000-0 +66160-1 0  9998","TLE_LINE2":"2 87284 089.4148 028.6510 1895466 305.1602 038.5773 08.72274119119569"},{"CCSDS_OMM_VERS":"2.0","COMMENT":"GENERATED VIA SPACE-TRACK.ORG API","CREATION_DATE":"2021-11-03T18:02:46","ORIGINATOR":"18 SPCS","OBJECT_NAME":"TBA - TO BE ASSIGNED","OBJECT_ID":"1971-015","CENTER_NAME":"EARTH","REF_FRAME":"TEME","TIME_SYSTEM":"UTC","MEAN_ELEMENT_THEORY":"SGP4","EPOCH":"2021-11-03T10:41:38.322816","MEAN_MOTION":"13.92861351","ECCENTRICITY":"0.05152400","INCLINATION":"65.9109","RA_OF_ASC_NODE":"76.2135","ARG_OF_PERICENTER":"80.1436","MEAN_ANOMALY":"285.7385","EPHEMERIS_TYPE":"0","CLASSIFICATION_TYPE":"U","NORAD_CAT_ID":"87293","ELEMENT_SET_NO":"999","REV_AT_EPOCH":"40356","BSTAR":"0.00052112000000","MEAN_MOTION_DOT":"0.00001947","MEAN_MOTION_DDOT":"0.0000000000000","SEMIMAJOR_AXIS":"7296.758","PERIOD":"103.384","APOAPSIS":"1294.581","PERIAPSIS":"542.664","OBJECT_TYPE":"TBA","RCS_SIZE":null,"COUNTRY_CODE":null,"LAUNCH_DATE":null,"SITE":null,"DECAY_DATE":null,"FILE":"3199757","GP_ID":"188806181","TLE_LINE0":"0 TBA - TO BE ASSIGNED","TLE_LINE1":"1 87293U 71015    21307.44558244 +.00001947 +00000+0 +52112-3 0  9996","TLE_LINE2":"2 87293  65.9109  76.2135 0515240  80.1436 285.7385 13.92861351403569"},{"CCSDS_OMM_VERS":"2.0","COMMENT":"GENERATED VIA SPACE-TRACK.ORG API","CREATION_DATE":"2021-11-02T18:24:01","ORIGINATOR":"18 SPCS","OBJECT_NAME":"TBA - TO BE ASSIGNED","OBJECT_ID":"1970-025","CENTER_NAME":"EARTH","REF_FRAME":"TEME","TIME_SYSTEM":"UTC","MEAN_ELEMENT_THEORY":"SGP4","EPOCH":"2021-11-01T18:37:17.135328","MEAN_MOTION":"13.92924966","ECCENTRICITY":"0.00328870","INCLINATION":"100.1042","RA_OF_ASC_NODE":"129.7614","ARG_OF_PERICENTER":"311.7820","MEAN_ANOMALY":"48.0528","EPHEMERIS_TYPE":"0","CLASSIFICATION_TYPE":"U","NORAD_CAT_ID":"87300","ELEMENT_SET_NO":"999","REV_AT_EPOCH":"40362","BSTAR":"0.00053818000000","MEAN_MOTION_DOT":"0.00000649","MEAN_MOTION_DDOT":"0.0000000000000","SEMIMAJOR_AXIS":"7296.535","PERIOD":"103.380","APOAPSIS":"942.397","PERIAPSIS":"894.404","OBJECT_TYPE":"TBA","RCS_SIZE":null,"COUNTRY_CODE":null,"LAUNCH_DATE":null,"SITE":null,"DECAY_DATE":null,"FILE":"3197730","GP_ID":"188716515","TLE_LINE0":"0 TBA - TO BE ASSIGNED","TLE_LINE1":"1 87300U 70025    21305.77589277 +.00000649 +00000+0 +53818-3 0  9991","TLE_LINE2":"2 87300 100.1042 129.7614 0032887 311.7820  48.0528 13.92924966403621"},{"CCSDS_OMM_VERS":"2.0","COMMENT":"GENERATED VIA SPACE-TRACK.ORG API","CREATION_DATE":"2021-11-03T18:02:46","ORIGINATOR":"18 SPCS","OBJECT_NAME":"TBA - TO BE ASSIGNED","OBJECT_ID":"","CENTER_NAME":"EARTH","REF_FRAME":"TEME","TIME_SYSTEM":"UTC","MEAN_ELEMENT_THEORY":"SGP4","EPOCH":"2021-11-03T09:34:39.220320","MEAN_MOTION":"14.68197221","ECCENTRICITY":"0.00213850","INCLINATION":"74.0209","RA_OF_ASC_NODE":"357.5106","ARG_OF_PERICENTER":"343.5850","MEAN_ANOMALY":"16.4625","EPHEMERIS_TYPE":"0","CLASSIFICATION_TYPE":"U","NORAD_CAT_ID":"87304","ELEMENT_SET_NO":"999","REV_AT_EPOCH":"42586","BSTAR":"0.00012462000000","MEAN_MOTION_DOT":"0.00000687","MEAN_MOTION_DDOT":"0.0000000000000","SEMIMAJOR_AXIS":"7044.966","PERIOD":"98.079","APOAPSIS":"681.897","PERIAPSIS":"651.765","OBJECT_TYPE":"TBA","RCS_SIZE":null,"COUNTRY_CODE":null,"LAUNCH_DATE":null,"SITE":null,"DECAY_DATE":null,"FILE":"3199757","GP_ID":"188806249","TLE_LINE0":"0 TBA - TO BE ASSIGNED","TLE_LINE1":"1 87304U          21307.39906505 +.00000687 +00000+0 +12462-3 0  9990","TLE_LINE2":"2 87304  74.0209 357.5106 0021385 343.5850  16.4625 14.68197221425860"},{"CCSDS_OMM_VERS":"2.0","COMMENT":"GENERATED VIA SPACE-TRACK.ORG API","CREATION_DATE":"2021-11-01T19:35:20","ORIGINATOR":"18 SPCS","OBJECT_NAME":"TBA - TO BE ASSIGNED","OBJECT_ID":"1993-036","CENTER_NAME":"EARTH","REF_FRAME":"TEME","TIME_SYSTEM":"UTC","MEAN_ELEMENT_THEORY":"SGP4","EPOCH":"2021-11-01T11:51:08.650368","MEAN_MOTION":"14.63385941","ECCENTRICITY":"0.00326540","INCLINATION":"73.9981","RA_OF_ASC_NODE":"238.8605","ARG_OF_PERICENTER":"30.6625","MEAN_ANOMALY":"329.6441","EPHEMERIS_TYPE":"0","CLASSIFICATION_TYPE":"U","NORAD_CAT_ID":"87305","ELEMENT_SET_NO":"999","REV_AT_EPOCH":"25356","BSTAR":"0.00087825000000","MEAN_MOTION_DOT":"0.00004547","MEAN_MOTION_DDOT":"0.0000000000000","SEMIMAJOR_AXIS":"7060.399","PERIOD":"98.402","APOAPSIS":"705.319","PERIAPSIS":"659.209","OBJECT_TYPE":"TBA","RCS_SIZE":null,"COUNTRY_CODE":null,"LAUNCH_DATE":null,"SITE":null,"DECAY_DATE":null,"FILE":"3196300","GP_ID":"188638593","TLE_LINE0":"0 TBA - TO BE ASSIGNED","TLE_LINE1":"1 87305U 93036    21305.49385012 +.00004547 +00000+0 +87825-3 0  9999","TLE_LINE2":"2 87305  73.9981 238.8605 0032654  30.6625 329.6441 14.63385941253560"},{"CCSDS_OMM_VERS":"2.0","COMMENT":"GENERATED VIA SPACE-TRACK.ORG API","CREATION_DATE":"2021-06-02T17:20:51","ORIGINATOR":"18 SPCS","OBJECT_NAME":"TBA - TO BE ASSIGNED","OBJECT_ID":"","CENTER_NAME":"EARTH","REF_FRAME":"TEME","TIME_SYSTEM":"UTC","MEAN_ELEMENT_THEORY":"SGP4","EPOCH":"2021-06-02T03:01:11.341344","MEAN_MOTION":"13.88594577","ECCENTRICITY":"0.02011830","INCLINATION":"65.8434","RA_OF_ASC_NODE":"346.0597","ARG_OF_PERICENTER":"66.4872","MEAN_ANOMALY":"295.7196","EPHEMERIS_TYPE":"0","CLASSIFICATION_TYPE":"U","NORAD_CAT_ID":"87313","ELEMENT_SET_NO":"999","REV_AT_EPOCH":"38153","BSTAR":"0.00002378500000","MEAN_MOTION_DOT":"-0.00000050","MEAN_MOTION_DDOT":"0.0000000000000","SEMIMAJOR_AXIS":"7311.697","PERIOD":"103.702","APOAPSIS":"1080.661","PERIAPSIS":"786.463","OBJECT_TYPE":"TBA","RCS_SIZE":null,"COUNTRY_CODE":null,"LAUNCH_DATE":null,"SITE":null,"DECAY_DATE":null,"FILE":"3047860","GP_ID":"178340675","TLE_LINE0":"0 TBA - TO BE ASSIGNED","TLE_LINE1":"1 87313U          21153.12582571 -.00000050 +00000+0 +23785-4 0  9999","TLE_LINE2":"2 87313  65.8434 346.0597 0201183  66.4872 295.7196 13.88594577381532"}]